1 25481U 98053G   15096.16915496  .00000864  00000-0  37230-3 0  9993,2 25481 045.0070 156.9595 0003309 219.4964 140.5641 14.31825082863246
1 25481U 98053G   15098.19258548  .00000686  00000-0  30623-3 0  9997,2 25481 045.0069 147.4629 0003442 228.5599 131.4951 14.31829543863531
1 25481U 98053G   15099.44850507  .00000591  00000-0  27101-3 0  9991,2 25481 045.0068 141.5685 0003513 233.8906 126.1615 14.31831501863712
1 25481U 98053G   15100.56487601  .00000612  00000-0  27870-3 0  9995,2 25481 045.0068 136.3288 0003550 238.7389 121.3109 14.31834073863872
1 25481U 98053G   15102.09988338  .00000636  00000-0  28772-3 0  9996,2 25481 045.0066 129.1238 0003614 244.9628 115.0843 14.31837048864096
1 25481U 98053G   15103.42556807  .00000579  00000-0  26645-3 0  9999,2 25481 045.0066 122.9015 0003644 250.7625 109.2827 14.31840267864280
1 25481U 98053G   15104.47216006  .00000597  00000-0  27332-3 0  9993,2 25481 045.0067 117.9891 0003669 254.9648 105.0792 14.31842317864435
1 25481U 98053G   15106.14670304  .00000869  00000-0  37393-3 0  9994,2 25481 045.0069 110.1291 0003705 261.8884 098.1541 14.31847309864672
1 25481U 98053G   15107.40260620  .00001045  00000-0  43914-3 0  9993,2 25481 045.0070 104.2345 0003702 266.8604 093.1818 14.31851097864851
1 25481U 98053G   15108.44919056  .00001108  00000-0  46218-3 0  9992,2 25481 045.0071 099.3222 0003687 271.3151 088.7273 14.31853867865000
1 25481U 98053G   15110.12372024  .00001262  00000-0  51921-3 0  9996,2 25481 045.0073 091.4624 0003646 278.3650 081.6783 14.31859310865240
1 25481U 98053G   15111.37961188  .00001384  00000-0  56449-3 0  9994,2 25481 045.0075 085.5676 0003612 283.2945 076.7498 14.31865455865423
1 25481U 98053G   15112.84481364  .00001370  00000-0  55926-3 0  9994,2 25481 045.0077 078.6901 0003547 289.4155 070.6307 14.31871134865633
1 25481U 98053G   15114.10069645  .00001398  00000-0  56933-3 0  9998,2 25481 045.0078 072.7954 0003514 293.8219 066.2259 14.31875238865817
1 25481U 98053G   15115.14726278  .00001339  00000-0  54765-3 0  9991,2 25481 045.0080 067.8829 0003447 298.1717 061.8781 14.31878389865969
1 25481U 98053G   15116.19382692  .00001213  00000-0  50082-3 0  9994,2 25481 045.0082 062.9707 0003379 302.5521 057.4999 14.31881171866112
1 25481U 98053G   15117.31015965  .00000977  00000-0  41359-3 0  9998,2 25481 045.0083 057.7310 0003293 307.2125 052.8420 14.31883606866272
1 25481U 98053G   15118.77534315  .00000832  00000-0  35978-3 0  9994,2 25481 045.0085 050.8539 0003192 313.0999 046.9580 14.31887073866489
1 25481U 98053G   15119.82190051  .00000717  00000-0  31751-3 0  9993,2 25481 045.0086 045.9417 0003111 317.5145 042.5460 14.31889309866633
1 25481U 98053G   15121.14753822  .00000598  00000-0  27318-3 0  9993,2 25481 045.0086 039.7196 0003003 323.4634 036.6007 14.31891785866820
1 25481U 98053G   15122.19409300  .00000512  00000-0  24159-3 0  9994,2 25481 045.0087 034.8073 0002909 328.0325 032.0344 14.31893494866972
1 25481U 98053G   15123.24064661  .00000475  00000-0  22763-3 0  9995,2 25481 045.0087 029.8950 0002806 332.7801 027.2898 14.31895245867121
1 25481U 98053G   15124.77558974  .00000506  00000-0  23910-3 0  9999,2 25481 045.0089 022.6903 0002678 339.6561 020.4177 14.31897966867349
1 25481U 98053G   15126.10122027  .00000601  00000-0  27428-3 0  9998,2 25481 045.0089 016.4681 0002550 345.9026 014.1748 14.31900531867536
1 25481U 98053G   15127.49661768  .00000689  00000-0  30686-3 0  9997,2 25481 045.0089 009.9184 0002429 352.1216 007.9591 14.31903444867731
1 25481U 98053G   15128.82224248  .00000725  00000-0  32008-3 0  9994,2 25481 045.0088 003.6961 0002268 359.6005 000.4838 14.31906270867926
1 25481U 98053G   15130.07809492  .00000763  00000-0  33407-3 0  9990,2 25481 045.0087 357.8012 0002138 006.7449 353.3426 14.31909182868103
1 25481U 98053G   15131.68279078  .00000944  00000-0  40136-3 0  9997,2 25481 045.0086 350.2687 0001978 016.0625 344.0284 14.31914003868330
1 25481U 98053G   15133.00840577  .00001203  00000-0  49701-3 0  9999,2 25481 045.0085 344.0460 0001878 024.0290 336.0643 14.31918611868525
1 25481U 98053G   15134.12470840  .00001297  00000-0  53149-3 0  9999,2 25481 045.0085 338.8061 0001741 032.2029 327.8923 14.31922525868688
1 25481U 98053G   15135.45031552  .00001342  00000-0  54834-3 0  9992,2 25481 045.0085 332.5833 0001639 040.6543 319.4425 14.31926555868878
1 25481U 98053G   15136.49684483  .00001245  00000-0  51220-3 0  9992,2 25481 045.0084 327.6706 0001558 048.6044 311.4935 14.31929161869027
1 25481U 98053G   15137.75267660  .00001021  00000-0  42952-3 0  9990,2 25481 045.0084 321.7758 0001493 059.7528 300.3466 14.31931974869208
1 25481U 98053G   15138.86896940  .00000867  00000-0  37269-3 0  9994,2 25481 045.0083 316.5355 0001434 070.1645 289.9356 14.31934435869366
1 25481U 98053G   15140.47363727  .00000707  00000-0  31319-3 0  9999,2 25481 045.0083 309.0028 0001396 082.2301 277.8703 14.31937611869596
1 25481U 98053G   15141.72946127  .00000614  00000-0  27882-3 0  9996,2 25481 045.0083 303.1079 0001369 095.6580 264.4422 14.31940046869770
1 25481U 98053G   15142.77598073  .00000510  00000-0  24046-3 0  9999,2 25481 045.0083 298.1952 0001376 104.0149 256.0850 14.31941368869924
1 25481U 98053G   15143.82249861  .00000437  00000-0  21347-3 0  9993,2 25481 045.0082 293.2824 0001392 114.2087 245.8905 14.31942761870072
1 25481U 98053G   15145.00855136  .00000383  00000-0  19358-3 0  9992,2 25481 045.0082 287.7148 0001435 123.7706 236.3276 14.31944208870243
1 25481U 98053G   15146.40390614  .00000284  00000-0  15699-3 0  9996,2 25481 045.0081 281.1645 0001513 136.7555 223.3410 14.31945464870448
1 25481U 98053G   15147.52018895  .00000277  00000-0  15437-3 0  9990,2 25481 045.0081 275.9244 0001581 145.8266 214.2681 14.31946770870607
1 25481U 98053G   15149.47368188  .00000243  00000-0  14156-3 0  9999,2 25481 045.0080 266.7543 0001720 159.7609 200.3305 14.31948703870883
1 25481U 98053G   15150.72949739  .00000257  00000-0  14679-3 0  9991,2 25481 045.0079 260.8595 0001811 167.0485 193.0408 14.31950001871065
1 25481U 98053G   15152.12484690  .00000279  00000-0  15495-3 0  9998,2 25481 045.0078 254.3094 0001927 175.9171 184.1691 14.31951289871260
1 25481U 98053G   15153.45042766  .00000249  00000-0  14403-3 0  9994,2 25481 045.0077 248.0866 0002051 183.3675 176.7158 14.31952251871453
1 25481U 98053G   15154.70623994  .00000279  00000-0  15486-3 0  9996,2 25481 045.0076 242.1916 0002137 189.4665 170.6141 14.31953537871637
1 25481U 98053G   15156.17135280  .00000276  00000-0  15395-3 0  9991,2 25481 045.0075 235.3137 0002263 196.8730 163.2041 14.31954955871845
1 25481U 98053G   15157.42716280  .00000317  00000-0  16916-3 0  9991,2 25481 045.0073 229.4185 0002365 203.0803 156.9937 14.31956419872026
1 25481U 98053G   15158.47367031  .00000392  00000-0  19687-3 0  9994,2 25481 045.0072 224.5059 0002440 207.8987 152.1729 14.31957854872177
1 25481U 98053G   15159.58994370  .00000532  00000-0  24867-3 0  9991,2 25481 045.0070 219.2658 0002520 213.1938 146.8750 14.31959803872334
1 25481U 98053G   15160.56668218 +.00000559 +00000-0 +25865-3 0  9998,2 25481 045.0068 214.6805 0002592 217.5160 142.5505 14.31960976872477
1 25481U 98053G   15161.19458483  .00000604  00000-0  27495-3 0  9991,2 25481 045.0067 211.7327 0002640 220.2675 139.7976 14.31961950872562
1 25481U 98053G   15161.61318661 +.00000593 +00000-0 +27099-3 0  9998,2 25481 045.0066 209.7677 0002670 221.9879 138.0762 14.31962333872621
1 25481U 98053G   15162.52015609 +.00000663 +00000-0 +29701-3 0  9995,2 25481 045.0064 205.5099 0002727 225.9197 134.1425 14.31963868872752
1 25481U 98053G   15163.49689180 +.00000720 +00000-0 +31806-3 0  9996,2 25481 045.0063 200.9246 0002780 229.9753 130.0849 14.31965441872894
1 25481U 98053G   15164.12479246  .00000691  00000-0  30712-3 0  9999,2 25481 045.0063 197.9768 0002816 232.6152 127.4437 14.31966267872982
1 25481U 98053G   15164.54339305 +.00000677 +00000-0 +30218-3 0  9991,2 25481 045.0063 196.0117 0002833 234.2557 125.8025 14.31966762873049
1 25481U 98053G   15165.52012631  .00000624  00000-0  28255-3 0  9990,2 25481 045.0063 191.4264 0002877 238.1976 121.8590 14.31968064873182
1 25481U 98053G   15166.35732563 +.00000537 +00000-0 +25027-3 0  9992,2 25481 045.0063 187.4960 0002916 241.4346 118.6206 14.31968907873300
1 25481U 98053G   15167.47359037  .00000689  00000-0  30655-3 0  9998,2 25481 045.0102 182.2512 0002781 242.1005 117.9600 14.31971712873465
1 25481U 98053G   15168.45032136 +.00000435 +00000-0 +21257-3 0  9992,2 25481 045.0065 177.6705 0002973 249.4355 110.6172 14.31971419873600
1 25481U 98053G   15169.07821912  .00000463  00000-0  22302-3 0  9992,2 25481 045.0065 174.7227 0002992 251.9087 108.1433 14.31972470873697
1 25481U 98053G   15169.91541603 +.00000384 +00000-0 +19384-3 0  9999,2 25481 045.0065 170.7924 0003010 255.0480 105.0032 14.31973089873813
1 25481U 98053G   15170.47354679  .00000379  00000-0  19191-3 0  9997,2 25481 045.0065 168.1723 0003017 256.9188 103.1321 14.31973806873898
1 25481U 98053G   15171.52004162  .00000372  00000-0  18940-3 0  9997,2 25481 045.0064 163.2595 0003028 260.6870 099.3633 14.31975009874049
1 25481U 98053G   15173.12466548  .00000325  00000-0  17181-3 0  9999,2 25481 045.0065 155.7263 0003029 266.3870 093.6629 14.31976600874277
1 25481U 98053G   15174.38045614  .00000388  00000-0  19519-3 0  9991,2 25481 045.0065 149.8308 0002988 271.1843 088.8660 14.31978594874453
1 25481U 98053G   15176.05484175  .00000449  00000-0  21786-3 0  9993,2 25481 045.0068 141.9702 0002954 277.2771 082.7739 14.31981122874694
1 25481U 98053G   15177.10133174  .00000337  00000-0  17652-3 0  9993,2 25481 045.0071 137.0575 0002919 280.9258 079.1259 14.31981853874849
1 25481U 98053G   15178.35711876  .00000306  00000-0  16476-3 0  9991,2 25481 045.0072 131.1622 0002873 285.7089 074.3440 14.31983160875025
1 25481U 98053G   15179.82220227  .00000261  00000-0  14829-3 0  9999,2 25481 045.0074 124.2841 0002823 290.9519 069.1024 14.31984490875234
